[{"OBJECT_NAME":"STARLINK-32903","OBJECT_ID":"2025-037P","EPOCH":"2026-03-09T22:27:32.189472","MEAN_MOTION":14.98330911,"ECCENTRICITY":0.00025085,"INCLINATION":70.0033,"RA_OF_ASC_NODE":353.6478,"ARG_OF_PERICENTER":276.6623,"MEAN_ANOMALY":83.425,"EPHEMERIS_TYPE":0,"CLASSIFICATION_TYPE":"U","NORAD_CAT_ID":63090,"ELEMENT_SET_NO":999,"REV_AT_EPOCH":5850,"BSTAR":0.0004471467,"MEAN_MOTION_DOT":5.246e-5,"MEAN_MOTION_DDOT":0},{"OBJECT_NAME":"CZ-6A DEB","OBJECT_ID":"2022-151BA","EPOCH":"2026-03-08T17:30:58.855968","MEAN_MOTION":14.9439792,"ECCENTRICITY":0.00472807,"INCLINATION":98.5596,"RA_OF_ASC_NODE":128.1704,"ARG_OF_PERICENTER":200.9968,"MEAN_ANOMALY":158.931,"EPHEMERIS_TYPE":0,"CLASSIFICATION_TYPE":"U","NORAD_CAT_ID":54307,"ELEMENT_SET_NO":999,"REV_AT_EPOCH":10452,"BSTAR":0.0069448926,"MEAN_MOTION_DOT":0.00077164,"MEAN_MOTION_DDOT":0}]
